STARLINK-2546_new
1 18296C 21036W   21326.16945948  .00005745  00000-0  38492-3 0  3265
2 18296  53.0542 282.9860 0001952  65.6524 258.7016 15.06389034    19
STARLINK-2546_old
1 28296C 21036W   21325.13585288  .00003070  00000-0  20561-3 0  3254
2 28296  53.0541 287.6259 0002019  65.6257  50.2940 15.06406509    18
